2025-313S               
1 67264U 25313S   26019.59948378  .00006583  00000+0  30688-3 0  9999
2 67264  97.4194  96.6923 0016014 165.6313 194.5381 15.20099325  3351
SITRO-TD-4              
1 67265U 25313T   26019.46627419  .00011139  00000+0  51420-3 0  9996
2 67265  97.4104  96.5562 0015924 161.8488 198.3319 15.20270068  3337
SITRO-AIS-65            
1 67266U 25313U   26019.59783213  .00009726  00000+0  44936-3 0  9999
2 67266  97.4131  96.6929 0015871 160.1323 200.0533 15.20279096  3358
2025-313V               
1 67267U 25313V   26019.59720872  .00011365  00000+0  52346-3 0  9998
2 67267  97.4113  96.6801 0015058 165.5917 194.5751 15.20353871  3356
ZORKY-2M 7              
1 67268U 25313W   26019.59821905  .00008245  00000+0  38205-3 0  9999
2 67268  97.4113  96.6772 0016044 160.9481 199.2357 15.20225086  3355
2025-313X               
1 67269U 25313X   26019.46497235  .00015028  00000+0  68880-3 0  9990
2 67269  97.4141  96.5671 0015802 159.9440 200.2419 15.20446302  3334
SITRO-TD-3              
1 67270U 25313Y   26019.59824562  .00009790  00000+0  45258-3 0  9996
2 67270  97.4113  96.6878 0015970 161.0494 199.1339 15.20256305  3355
2025-313Z               
1 67271U 25313Z   26019.59950356  .00004902  00000+0  22967-3 0  9990
2 67271  97.4107  96.6762 0016035 157.2633 202.9315 15.20055764  3359
2025-313AA              
1 67272U 25313AA  26019.59611367  .00011101  00000+0  50985-3 0  9997
2 67272  97.4112  96.6793 0015707 161.4456 198.7355 15.20450346  3356
2025-313AB              
1 67273U 25313AB  26019.59943431  .00003548  00000+0  16731-3 0  9995
2 67273  97.4125  96.6804 0014974 165.5313 194.6354 15.20028356  3352
2025-313AC              
1 67274U 25313AC  26019.59778178  .00006970  00000+0  32359-3 0  9996
2 67274  97.4101  96.6842 0015714 160.5752 199.6085 15.20224353  3355
2025-313AD              
1 67275U 25313AD  26019.46533532  .00008236  00000+0  38113-3 0  9997
2 67275  97.4076  96.5491 0014901 163.7107 196.4610 15.20287450  3336
