CCSDS_OMM_VERS = 2.0
CREATION_DATE  = 
ORIGINATOR     = 

OBJECT_NAME    = 2025-313S
OBJECT_ID      = 2025-313S
CENTER_NAME    = EARTH
REF_FRAME      = TEME
TIME_SYSTEM    = UTC
MEAN_ELEMENT_THEORY = SGP/SGP4

EPOCH          = 2026-01-19T14:23:15.398592
MEAN_MOTION    = 15.20099325
ECCENTRICITY   = .00160141
INCLINATION    = 97.4194
RA_OF_ASC_NODE = 96.6923
ARG_OF_PERICENTER = 165.6313
MEAN_ANOMALY   = 194.5381

EPHEMERIS_TYPE = 0
CLASSIFICATION_TYPE = U
NORAD_CAT_ID   = 67264
ELEMENT_SET_NO = 999
REV_AT_EPOCH   = 335
BSTAR          = .30687993E-3
MEAN_MOTION_DOT = .6583E-4
MEAN_MOTION_DDOT = 0

CCSDS_OMM_VERS = 2.0
CREATION_DATE  = 
ORIGINATOR     = 

OBJECT_NAME    = SITRO-TD-4
OBJECT_ID      = 2025-313T
CENTER_NAME    = EARTH
REF_FRAME      = TEME
TIME_SYSTEM    = UTC
MEAN_ELEMENT_THEORY = SGP/SGP4

EPOCH          = 2026-01-19T11:11:26.090016
MEAN_MOTION    = 15.20270068
ECCENTRICITY   = .00159242
INCLINATION    = 97.4104
RA_OF_ASC_NODE = 96.5562
ARG_OF_PERICENTER = 161.8488
MEAN_ANOMALY   = 198.3319

EPHEMERIS_TYPE = 0
CLASSIFICATION_TYPE = U
NORAD_CAT_ID   = 67265
ELEMENT_SET_NO = 999
REV_AT_EPOCH   = 333
BSTAR          = .51419595E-3
MEAN_MOTION_DOT = .11139E-3
MEAN_MOTION_DDOT = 0

CCSDS_OMM_VERS = 2.0
CREATION_DATE  = 
ORIGINATOR     = 

OBJECT_NAME    = SITRO-AIS-65
OBJECT_ID      = 2025-313U
CENTER_NAME    = EARTH
REF_FRAME      = TEME
TIME_SYSTEM    = UTC
MEAN_ELEMENT_THEORY = SGP/SGP4

EPOCH          = 2026-01-19T14:20:52.696032
MEAN_MOTION    = 15.20279096
ECCENTRICITY   = .00158715
INCLINATION    = 97.4131
RA_OF_ASC_NODE = 96.6929
ARG_OF_PERICENTER = 160.1323
MEAN_ANOMALY   = 200.0533

EPHEMERIS_TYPE = 0
CLASSIFICATION_TYPE = U
NORAD_CAT_ID   = 67266
ELEMENT_SET_NO = 999
REV_AT_EPOCH   = 335
BSTAR          = .44935612E-3
MEAN_MOTION_DOT = .9726E-4
MEAN_MOTION_DDOT = 0

CCSDS_OMM_VERS = 2.0
CREATION_DATE  = 
ORIGINATOR     = 

OBJECT_NAME    = 2025-313V
OBJECT_ID      = 2025-313V
CENTER_NAME    = EARTH
REF_FRAME      = TEME
TIME_SYSTEM    = UTC
MEAN_ELEMENT_THEORY = SGP/SGP4

EPOCH          = 2026-01-19T14:19:58.833408
MEAN_MOTION    = 15.20353871
ECCENTRICITY   = .00150587
INCLINATION    = 97.4113
RA_OF_ASC_NODE = 96.6801
ARG_OF_PERICENTER = 165.5917
MEAN_ANOMALY   = 194.5751

EPHEMERIS_TYPE = 0
CLASSIFICATION_TYPE = U
NORAD_CAT_ID   = 67267
ELEMENT_SET_NO = 999
REV_AT_EPOCH   = 335
BSTAR          = .52346472E-3
MEAN_MOTION_DOT = .11365E-3
MEAN_MOTION_DDOT = 0

CCSDS_OMM_VERS = 2.0
CREATION_DATE  = 
ORIGINATOR     = 

OBJECT_NAME    = ZORKY-2M 7
OBJECT_ID      = 2025-313W
CENTER_NAME    = EARTH
REF_FRAME      = TEME
TIME_SYSTEM    = UTC
MEAN_ELEMENT_THEORY = SGP/SGP4

EPOCH          = 2026-01-19T14:21:26.125920
MEAN_MOTION    = 15.20225086
ECCENTRICITY   = .00160441
INCLINATION    = 97.4113
RA_OF_ASC_NODE = 96.6772
ARG_OF_PERICENTER = 160.9481
MEAN_ANOMALY   = 199.2357

EPHEMERIS_TYPE = 0
CLASSIFICATION_TYPE = U
NORAD_CAT_ID   = 67268
ELEMENT_SET_NO = 999
REV_AT_EPOCH   = 335
BSTAR          = .38205459E-3
MEAN_MOTION_DOT = .8245E-4
MEAN_MOTION_DDOT = 0

CCSDS_OMM_VERS = 2.0
CREATION_DATE  = 
ORIGINATOR     = 

OBJECT_NAME    = 2025-313X
OBJECT_ID      = 2025-313X
CENTER_NAME    = EARTH
REF_FRAME      = TEME
TIME_SYSTEM    = UTC
MEAN_ELEMENT_THEORY = SGP/SGP4

EPOCH          = 2026-01-19T11:09:33.611040
MEAN_MOTION    = 15.20446302
ECCENTRICITY   = .00158021
INCLINATION    = 97.4141
RA_OF_ASC_NODE = 96.5671
ARG_OF_PERICENTER = 159.9440
MEAN_ANOMALY   = 200.2419

EPHEMERIS_TYPE = 0
CLASSIFICATION_TYPE = U
NORAD_CAT_ID   = 67269
ELEMENT_SET_NO = 999
REV_AT_EPOCH   = 333
BSTAR          = .68880191E-3
MEAN_MOTION_DOT = .15028E-3
MEAN_MOTION_DDOT = 0

CCSDS_OMM_VERS = 2.0
CREATION_DATE  = 
ORIGINATOR     = 

OBJECT_NAME    = SITRO-TD-3
OBJECT_ID      = 2025-313Y
CENTER_NAME    = EARTH
REF_FRAME      = TEME
TIME_SYSTEM    = UTC
MEAN_ELEMENT_THEORY = SGP/SGP4

EPOCH          = 2026-01-19T14:21:28.421568
MEAN_MOTION    = 15.20256305
ECCENTRICITY   = .00159708
INCLINATION    = 97.4113
RA_OF_ASC_NODE = 96.6878
ARG_OF_PERICENTER = 161.0494
MEAN_ANOMALY   = 199.1339

EPHEMERIS_TYPE = 0
CLASSIFICATION_TYPE = U
NORAD_CAT_ID   = 67270
ELEMENT_SET_NO = 999
REV_AT_EPOCH   = 335
BSTAR          = .45257555E-3
MEAN_MOTION_DOT = .979E-4
MEAN_MOTION_DDOT = 0

CCSDS_OMM_VERS = 2.0
CREATION_DATE  = 
ORIGINATOR     = 

OBJECT_NAME    = 2025-313Z
OBJECT_ID      = 2025-313Z
CENTER_NAME    = EARTH
REF_FRAME      = TEME
TIME_SYSTEM    = UTC
MEAN_ELEMENT_THEORY = SGP/SGP4

EPOCH          = 2026-01-19T14:23:17.107584
MEAN_MOTION    = 15.20055764
ECCENTRICITY   = .00160352
INCLINATION    = 97.4107
RA_OF_ASC_NODE = 96.6762
ARG_OF_PERICENTER = 157.2633
MEAN_ANOMALY   = 202.9315

EPHEMERIS_TYPE = 0
CLASSIFICATION_TYPE = U
NORAD_CAT_ID   = 67271
ELEMENT_SET_NO = 999
REV_AT_EPOCH   = 335
BSTAR          = .22967236E-3
MEAN_MOTION_DOT = .4902E-4
MEAN_MOTION_DDOT = 0

CCSDS_OMM_VERS = 2.0
CREATION_DATE  = 
ORIGINATOR     = 

OBJECT_NAME    = 2025-313AA
OBJECT_ID      = 2025-313AA
CENTER_NAME    = EARTH
REF_FRAME      = TEME
TIME_SYSTEM    = UTC
MEAN_ELEMENT_THEORY = SGP/SGP4

EPOCH          = 2026-01-19T14:18:24.221088
MEAN_MOTION    = 15.20450346
ECCENTRICITY   = .00157078
INCLINATION    = 97.4112
RA_OF_ASC_NODE = 96.6793
ARG_OF_PERICENTER = 161.4456
MEAN_ANOMALY   = 198.7355

EPHEMERIS_TYPE = 0
CLASSIFICATION_TYPE = U
NORAD_CAT_ID   = 67272
ELEMENT_SET_NO = 999
REV_AT_EPOCH   = 335
BSTAR          = .50985436E-3
MEAN_MOTION_DOT = .11101E-3
MEAN_MOTION_DDOT = 0

CCSDS_OMM_VERS = 2.0
CREATION_DATE  = 
ORIGINATOR     = 

OBJECT_NAME    = 2025-313AB
OBJECT_ID      = 2025-313AB
CENTER_NAME    = EARTH
REF_FRAME      = TEME
TIME_SYSTEM    = UTC
MEAN_ELEMENT_THEORY = SGP/SGP4

EPOCH          = 2026-01-19T14:23:11.124384
MEAN_MOTION    = 15.20028356
ECCENTRICITY   = .00149744
INCLINATION    = 97.4125
RA_OF_ASC_NODE = 96.6804
ARG_OF_PERICENTER = 165.5313
MEAN_ANOMALY   = 194.6354

EPHEMERIS_TYPE = 0
CLASSIFICATION_TYPE = U
NORAD_CAT_ID   = 67273
ELEMENT_SET_NO = 999
REV_AT_EPOCH   = 335
BSTAR          = .1673136E-3
MEAN_MOTION_DOT = .3548E-4
MEAN_MOTION_DDOT = 0

CCSDS_OMM_VERS = 2.0
CREATION_DATE  = 
ORIGINATOR     = 

OBJECT_NAME    = 2025-313AC
OBJECT_ID      = 2025-313AC
CENTER_NAME    = EARTH
REF_FRAME      = TEME
TIME_SYSTEM    = UTC
MEAN_ELEMENT_THEORY = SGP/SGP4

EPOCH          = 2026-01-19T14:20:48.345792
MEAN_MOTION    = 15.20224353
ECCENTRICITY   = .00157144
INCLINATION    = 97.4101
RA_OF_ASC_NODE = 96.6842
ARG_OF_PERICENTER = 160.5752
MEAN_ANOMALY   = 199.6085

EPHEMERIS_TYPE = 0
CLASSIFICATION_TYPE = U
NORAD_CAT_ID   = 67274
ELEMENT_SET_NO = 999
REV_AT_EPOCH   = 335
BSTAR          = .32359345E-3
MEAN_MOTION_DOT = .697E-4
MEAN_MOTION_DDOT = 0

CCSDS_OMM_VERS = 2.0
CREATION_DATE  = 
ORIGINATOR     = 

OBJECT_NAME    = 2025-313AD
OBJECT_ID      = 2025-313AD
CENTER_NAME    = EARTH
REF_FRAME      = TEME
TIME_SYSTEM    = UTC
MEAN_ELEMENT_THEORY = SGP/SGP4

EPOCH          = 2026-01-19T11:10:04.971648
MEAN_MOTION    = 15.20287450
ECCENTRICITY   = .00149013
INCLINATION    = 97.4076
RA_OF_ASC_NODE = 96.5491
ARG_OF_PERICENTER = 163.7107
MEAN_ANOMALY   = 196.4610

EPHEMERIS_TYPE = 0
CLASSIFICATION_TYPE = U
NORAD_CAT_ID   = 67275
ELEMENT_SET_NO = 999
REV_AT_EPOCH   = 333
BSTAR          = .38112642E-3
MEAN_MOTION_DOT = .8236E-4
MEAN_MOTION_DDOT = 0

